[{"OBJECT_NAME":"STARLINK-31078","OBJECT_ID":"2023-203W","EPOCH":"2026-03-09T01:34:06.615840","MEAN_MOTION":15.27582184,"ECCENTRICITY":0.00010977,"INCLINATION":43.0038,"RA_OF_ASC_NODE":70.8133,"ARG_OF_PERICENTER":233.2401,"MEAN_ANOMALY":126.835,"EPHEMERIS_TYPE":0,"CLASSIFICATION_TYPE":"U","NORAD_CAT_ID":58638,"ELEMENT_SET_NO":999,"REV_AT_EPOCH":12346,"BSTAR":-2.716962e-5,"MEAN_MOTION_DOT":-1.01e-5,"MEAN_MOTION_DDOT":0},{"OBJECT_NAME":"KUIPER-00209","OBJECT_ID":"2026-030N","EPOCH":"2026-03-09T14:49:43.575744","MEAN_MOTION":15.3016195,"ECCENTRICITY":0.0012191,"INCLINATION":51.8838,"RA_OF_ASC_NODE":220.0775,"ARG_OF_PERICENTER":59.1967,"MEAN_ANOMALY":301.0215,"EPHEMERIS_TYPE":0,"CLASSIFICATION_TYPE":"U","NORAD_CAT_ID":67776,"ELEMENT_SET_NO":999,"REV_AT_EPOCH":507,"BSTAR":0.0011963,"MEAN_MOTION_DOT":0.00035298,"MEAN_MOTION_DDOT":0}]
